{"type":"FeatureCollection","name":"NUTS_2024_Nivel_1_Portugal","features":[{"type":"Feature","id":"PT1","properties":{"ID":"1","NUTS_ID":"PT1","Codigo_Sem_PT":"1","Nivel":1,"Regiao":"Continente"},"geometry":{"type":"Polygon","coordinates":[[[-8.862827,41.872702],[-8.602913,42.054119],[-8.19793,42.155114],[-8.101218,42.037286],[-8.19793,41.921329],[-8.164685,41.818463],[-8.052862,41.820334],[-7.735524,41.902626],[-7.415165,41.827815],[-7.200584,41.880183],[-7.158273,41.973697],[-6.986004,41.971826],[-6.577999,41.934421],[-6.517554,41.683803],[-6.221372,41.59777],[-6.330174,41.39578],[-6.478264,41.294785],[-6.689823,41.205011],[-6.807691,41.055389],[-6.928581,41.029205],[-6.81978,40.86275],[-6.801646,40.361515],[-6.865114,40.269871],[-6.952759,40.256779],[-7.00716,40.159525],[-6.877203,39.976237],[-7.025293,39.686344],[-7.5421,39.66203],[-7.31543,39.456299],[-7.230807,39.278622],[-7.218718,39.209422],[-6.970893,39.022394],[-7.203607,38.751203],[-7.309386,38.457569],[-7.106894,38.188249],[-6.931603,38.208822],[-7.013204,38.040497],[-7.236852,37.963815],[-7.511877,37.526169],[-7.403076,37.174557],[-7.403076,37.174557],[-7.868504,36.989399],[-8.173752,37.081043],[-8.578735,37.112837],[-8.956517,37.019323],[-8.796337,37.442007],[-8.79936,37.859079],[-8.865849,37.978777],[-8.735892,38.515548],[-9.192253,38.446347],[-9.231543,38.66143],[-9.065319,38.657689],[-8.926295,38.758684],[-8.968606,38.827885],[-9.038118,38.859679],[-9.159009,38.710057],[-9.45519,38.706316],[-9.491457,38.775517],[-9.415901,39.054189],[-9.343366,39.349693],[-9.092519,39.577867],[-9.04114,39.740582],[-8.896072,40.045437],[-8.784248,40.520489],[-8.690558,40.686944],[-8.654291,40.965615],[-8.775182,41.472462],[-8.811449,41.610862],[-8.871894,41.86335],[-8.862827,41.872702]]]}},{"type":"Feature","id":"PT2","properties":{"ID":"2","NUTS_ID":"PT2","Codigo_Sem_PT":"2","Nivel":1,"Regiao":"Região Autónoma dos Açores"},"geometry":{"type":"MultiPolygon","coordinates":[[[[-25.811659,37.902096],[-25.603123,37.825414],[-25.19814,37.86282],[-25.113517,37.79549],[-25.482232,37.701976],[-25.742147,37.750603],[-25.887215,37.86656],[-25.811659,37.902096]]],[[[-24.998671,36.944512],[-25.128628,36.93329],[-25.192095,36.974437],[-25.068183,37.017453],[-24.998671,36.944512]]],[[[-28.323156,38.403331],[-28.459158,38.386498],[-28.864141,38.618413],[-28.628405,38.650208],[-28.323156,38.403331]]],[[[-27.930263,38.601581],[-28.039064,38.581008],[-28.156932,38.653949],[-28.023953,38.689484],[-27.930263,38.601581]]],[[[-27.023585,38.687614],[-27.265366,38.638986],[-27.413456,38.751203],[-27.319766,38.809182],[-27.147497,38.805441],[-27.023585,38.687614]]],[[[-27.921196,39.042967],[-27.996752,38.999951],[-28.093465,39.042967],[-27.984663,39.093465],[-27.921196,39.042967]]],[[[-31.118746,39.445077],[-31.215459,39.355304],[-31.291015,39.454429],[-31.218481,39.52737],[-31.118746,39.445077]]],[[[-31.052257,39.703176],[-31.106657,39.632105],[-31.176169,39.706917],[-31.10968,39.761155],[-31.052257,39.703176]]]]}},{"type":"Feature","id":"PT3","properties":{"ID":"3","NUTS_ID":"PT3","Codigo_Sem_PT":"3","Nivel":1,"Regiao":"Região Autónoma da Madeira"},"geometry":{"type":"MultiPolygon","coordinates":[[[[-16.832526,32.646607],[-16.950394,32.635386],[-17.192174,32.7289],[-17.276798,32.816803],[-17.189152,32.861689],[-16.908082,32.828024],[-16.763014,32.73077],[-16.832526,32.646607]]],[[[-15.811002,30.101155],[-15.886558,30.101155],[-15.931892,30.142301],[-15.895625,30.190929],[-15.838202,30.19654],[-15.811002,30.101155]]],[[[-16.225051,33.097345],[-16.285497,33.041236],[-16.400342,33.086123],[-16.30363,33.13475],[-16.225051,33.097345]]]]}}]}