{"type":"FeatureCollection","name":"NUTS_2024_Nivel_3_Portugal","features":[{"type":"Feature","id":"PT111","properties":{"NUTS_ID":"PT111","Codigo_Sem_PT":"111","Nivel":3,"Regiao":"Alto Minho"},"geometry":{"type":"Polygon","coordinates":[[[-8.862827,41.872702],[-8.602913,42.054119],[-8.19793,42.155114],[-8.101218,42.037286],[-8.19793,41.921329],[-8.164685,41.818463],[-8.460867,41.745523],[-8.554557,41.646398],[-8.811449,41.610862],[-8.871894,41.86335],[-8.862827,41.872702]]]}},{"type":"Feature","id":"PT112","properties":{"NUTS_ID":"PT112","Codigo_Sem_PT":"112","Nivel":3,"Regiao":"Cávado"},"geometry":{"type":"Polygon","coordinates":[[[-8.811449,41.610862],[-8.554557,41.646398],[-8.460867,41.745523],[-8.164685,41.818463],[-8.052862,41.820334],[-8.119351,41.689414],[-8.297665,41.637046],[-8.336954,41.541662],[-8.624069,41.414483],[-8.775182,41.472462],[-8.811449,41.610862]]]}},{"type":"Feature","id":"PT119","properties":{"NUTS_ID":"PT119","Codigo_Sem_PT":"119","Nivel":3,"Regiao":"Ave"},"geometry":{"type":"Polygon","coordinates":[[[-8.119351,41.689414],[-7.841303,41.59216],[-7.886637,41.470591],[-7.789925,41.410742],[-7.907793,41.302266],[-7.962194,41.436926],[-8.034728,41.472462],[-8.128418,41.39391],[-8.315798,41.350893],[-8.584779,41.352764],[-8.624069,41.414483],[-8.336954,41.541662],[-8.297665,41.637046],[-8.119351,41.689414]]]}},{"type":"Feature","id":"PT11A","properties":{"NUTS_ID":"PT11A","Codigo_Sem_PT":"11A","Nivel":3,"Regiao":"Área Metropolitana do Porto"},"geometry":{"type":"Polygon","coordinates":[[[-8.775182,41.472462],[-8.624069,41.414483],[-8.584779,41.352764],[-8.315798,41.350893],[-8.409488,41.287304],[-8.31882,41.218103],[-8.373221,41.012373],[-8.29162,40.967486],[-8.089129,40.988059],[-8.122374,40.877712],[-8.273487,40.763625],[-8.509223,40.782328],[-8.654291,40.965615],[-8.775182,41.472462]]]}},{"type":"Feature","id":"PT11B","properties":{"NUTS_ID":"PT11B","Codigo_Sem_PT":"11B","Nivel":3,"Regiao":"Alto Tâmega e Barroso"},"geometry":{"type":"Polygon","coordinates":[[[-8.052862,41.820334],[-7.735524,41.902626],[-7.415165,41.827815],[-7.200584,41.880183],[-7.19454,41.73056],[-7.291252,41.491164],[-7.366809,41.440667],[-7.439343,41.509867],[-7.611612,41.405131],[-7.789925,41.410742],[-7.886637,41.470591],[-7.841303,41.59216],[-8.119351,41.689414],[-8.052862,41.820334]]]}},{"type":"Feature","id":"PT11C","properties":{"NUTS_ID":"PT11C","Codigo_Sem_PT":"11C","Nivel":3,"Regiao":"Tâmega e Sousa"},"geometry":{"type":"Polygon","coordinates":[[[-8.315798,41.350893],[-8.128418,41.39391],[-8.034728,41.472462],[-7.962194,41.436926],[-7.907793,41.302266],[-7.868504,41.113368],[-7.91686,41.019854],[-8.089129,40.988059],[-8.29162,40.967486],[-8.373221,41.012373],[-8.31882,41.218103],[-8.409488,41.287304],[-8.315798,41.350893]]]}},{"type":"Feature","id":"PT11D","properties":{"NUTS_ID":"PT11D","Codigo_Sem_PT":"11D","Nivel":3,"Regiao":"Douro"},"geometry":{"type":"Polygon","coordinates":[[[-7.366809,41.440667],[-7.22174,41.248028],[-7.049471,41.289174],[-6.689823,41.205011],[-6.807691,41.055389],[-6.928581,41.029205],[-7.143161,40.937561],[-7.203607,41.021724],[-7.309386,41.016113],[-7.454454,40.812252],[-7.669035,40.868361],[-7.726458,40.950653],[-7.91686,41.019854],[-7.868504,41.113368],[-7.907793,41.302266],[-7.789925,41.410742],[-7.611612,41.405131],[-7.439343,41.509867],[-7.366809,41.440667]]]}},{"type":"Feature","id":"PT11E","properties":{"NUTS_ID":"PT11E","Codigo_Sem_PT":"11E","Nivel":3,"Regiao":"Terras de Trás-os-Montes"},"geometry":{"type":"Polygon","coordinates":[[[-6.986004,41.971826],[-6.577999,41.934421],[-6.517554,41.683803],[-6.221372,41.59777],[-6.330174,41.39578],[-6.478264,41.294785],[-6.689823,41.205011],[-7.049471,41.289174],[-7.22174,41.248028],[-7.366809,41.440667],[-7.291252,41.491164],[-7.19454,41.73056],[-7.200584,41.880183],[-7.158273,41.973697],[-6.986004,41.971826]]]}},{"type":"Feature","id":"PT150","properties":{"NUTS_ID":"PT150","Codigo_Sem_PT":"150","Nivel":3,"Regiao":"Algarve"},"geometry":{"type":"Polygon","coordinates":[[[-8.796337,37.442007],[-8.469933,37.385898],[-8.379266,37.427045],[-8.07704,37.32792],[-7.78388,37.475672],[-7.511877,37.526169],[-7.403076,37.174557],[-7.403076,37.174557],[-7.868504,36.989399],[-8.173752,37.081043],[-8.578735,37.112837],[-8.956517,37.019323],[-8.796337,37.442007]]]}},{"type":"Feature","id":"PT191","properties":{"NUTS_ID":"PT191","Codigo_Sem_PT":"191","Nivel":3,"Regiao":"Região de Aveiro"},"geometry":{"type":"Polygon","coordinates":[[[-8.654291,40.965615],[-8.509223,40.782328],[-8.273487,40.763625],[-8.312776,40.720609],[-8.249308,40.514878],[-8.400421,40.404531],[-8.663358,40.443807],[-8.784248,40.520489],[-8.690558,40.686944],[-8.654291,40.965615]]]}},{"type":"Feature","id":"PT192","properties":{"NUTS_ID":"PT192","Codigo_Sem_PT":"192","Nivel":3,"Regiao":"Região de Coimbra"},"geometry":{"type":"Polygon","coordinates":[[[-8.784248,40.520489],[-8.663358,40.443807],[-8.400421,40.404531],[-8.249308,40.514878],[-8.149574,40.340942],[-7.829214,40.498045],[-7.75668,40.116508],[-7.808059,40.036086],[-8.119351,39.933221],[-8.188863,40.071621],[-8.361132,39.961275],[-8.896072,40.045437],[-8.784248,40.520489]]]}},{"type":"Feature","id":"PT193","properties":{"NUTS_ID":"PT193","Codigo_Sem_PT":"193","Nivel":3,"Regiao":"Região de Leiria"},"geometry":{"type":"Polygon","coordinates":[[[-8.896072,40.045437],[-8.361132,39.961275],[-8.188863,40.071621],[-8.119351,39.933221],[-8.285576,39.79669],[-8.430644,39.746193],[-8.497134,39.819133],[-8.651269,39.764895],[-8.690558,39.553554],[-8.76007,39.475002],[-8.902117,39.46565],[-8.941406,39.671381],[-9.04114,39.740582],[-8.896072,40.045437]]]}},{"type":"Feature","id":"PT194","properties":{"NUTS_ID":"PT194","Codigo_Sem_PT":"194","Nivel":3,"Regiao":"Viseu Dão Lafões"},"geometry":{"type":"Polygon","coordinates":[[[-8.089129,40.988059],[-7.91686,41.019854],[-7.726458,40.950653],[-7.669035,40.868361],[-7.454454,40.812252],[-7.587434,40.584078],[-7.829214,40.498045],[-8.149574,40.340942],[-8.249308,40.514878],[-8.312776,40.720609],[-8.273487,40.763625],[-8.122374,40.877712],[-8.089129,40.988059]]]}},{"type":"Feature","id":"PT195","properties":{"NUTS_ID":"PT195","Codigo_Sem_PT":"195","Nivel":3,"Regiao":"Beira Baixa"},"geometry":{"type":"Polygon","coordinates":[[[-7.808059,40.036086],[-7.5693,40.075362],[-7.394009,40.009902],[-7.245918,40.258649],[-7.109917,40.301666],[-6.952759,40.256779],[-7.00716,40.159525],[-6.877203,39.976237],[-7.025293,39.686344],[-7.5421,39.66203],[-7.826192,39.536721],[-7.986372,39.73123],[-8.080062,39.622754],[-8.200952,39.633976],[-8.285576,39.79669],[-8.119351,39.933221],[-7.808059,40.036086]]]}},{"type":"Feature","id":"PT196","properties":{"NUTS_ID":"PT196","Codigo_Sem_PT":"196","Nivel":3,"Regiao":"Beiras e Serra da Estrela"},"geometry":{"type":"Polygon","coordinates":[[[-7.829214,40.498045],[-7.587434,40.584078],[-7.454454,40.812252],[-7.309386,41.016113],[-7.203607,41.021724],[-7.143161,40.937561],[-6.928581,41.029205],[-6.81978,40.86275],[-6.801646,40.361515],[-6.865114,40.269871],[-6.952759,40.256779],[-7.109917,40.301666],[-7.245918,40.258649],[-7.394009,40.009902],[-7.5693,40.075362],[-7.808059,40.036086],[-7.75668,40.116508],[-7.829214,40.498045]]]}},{"type":"Feature","id":"PT1A0","properties":{"NUTS_ID":"PT1A0","Codigo_Sem_PT":"1A0","Nivel":3,"Regiao":"Grande Lisboa"},"geometry":{"type":"Polygon","coordinates":[[[-9.415901,39.054189],[-9.140875,38.949453],[-8.929317,39.018653],[-8.887005,38.966285],[-8.968606,38.827885],[-9.038118,38.859679],[-9.159009,38.710057],[-9.45519,38.706316],[-9.491457,38.775517],[-9.415901,39.054189]]]}},{"type":"Feature","id":"PT1B0","properties":{"NUTS_ID":"PT1B0","Codigo_Sem_PT":"1B0","Nivel":3,"Regiao":"Península de Setúbal"},"geometry":{"type":"Polygon","coordinates":[[[-8.926295,38.758684],[-8.775182,38.751203],[-8.672425,38.829755],[-8.54549,38.764295],[-8.527356,38.706316],[-8.63918,38.549213],[-8.735892,38.515548],[-9.192253,38.446347],[-9.231543,38.66143],[-9.065319,38.657689],[-8.926295,38.758684]]]}},{"type":"Feature","id":"PT1C1","properties":{"NUTS_ID":"PT1C1","Codigo_Sem_PT":"1C1","Nivel":3,"Regiao":"Alentejo Litoral"},"geometry":{"type":"Polygon","coordinates":[[[-8.735892,38.515548],[-8.63918,38.549213],[-8.370199,38.52677],[-8.288598,38.371536],[-8.164685,38.319168],[-8.152596,38.229395],[-8.38531,38.077902],[-8.306731,37.971296],[-8.388332,37.832895],[-8.397399,37.709457],[-8.324865,37.608462],[-8.379266,37.427045],[-8.469933,37.385898],[-8.796337,37.442007],[-8.79936,37.859079],[-8.865849,37.978777],[-8.735892,38.515548]]]}},{"type":"Feature","id":"PT1C2","properties":{"NUTS_ID":"PT1C2","Codigo_Sem_PT":"1C2","Nivel":3,"Regiao":"Baixo Alentejo"},"geometry":{"type":"Polygon","coordinates":[[[-8.164685,38.319168],[-7.557211,38.19386],[-7.297297,38.317298],[-7.176406,38.188249],[-7.106894,38.188249],[-6.931603,38.208822],[-7.013204,38.040497],[-7.236852,37.963815],[-7.511877,37.526169],[-7.78388,37.475672],[-8.07704,37.32792],[-8.379266,37.427045],[-8.324865,37.608462],[-8.397399,37.709457],[-8.388332,37.832895],[-8.306731,37.971296],[-8.38531,38.077902],[-8.152596,38.229395],[-8.164685,38.319168]]]}},{"type":"Feature","id":"PT1C3","properties":{"NUTS_ID":"PT1C3","Codigo_Sem_PT":"1C3","Nivel":3,"Regiao":"Alto Alentejo"},"geometry":{"type":"Polygon","coordinates":[[[-8.173752,39.233736],[-7.968238,39.403931],[-7.965216,39.536721],[-7.826192,39.536721],[-7.5421,39.66203],[-7.31543,39.456299],[-7.230807,39.278622],[-7.218718,39.209422],[-6.970893,39.022394],[-7.203607,38.751203],[-7.212673,38.831625],[-7.384942,38.822274],[-7.508855,38.977507],[-7.811081,38.904566],[-8.113307,39.013043],[-8.228153,38.986859],[-8.321843,39.117778],[-8.173752,39.233736]]]}},{"type":"Feature","id":"PT1C4","properties":{"NUTS_ID":"PT1C4","Codigo_Sem_PT":"1C4","Nivel":3,"Regiao":"Alentejo Central"},"geometry":{"type":"Polygon","coordinates":[[[-8.228153,38.986859],[-8.113307,39.013043],[-7.811081,38.904566],[-7.508855,38.977507],[-7.384942,38.822274],[-7.212673,38.831625],[-7.203607,38.751203],[-7.309386,38.457569],[-7.106894,38.188249],[-7.176406,38.188249],[-7.297297,38.317298],[-7.557211,38.19386],[-8.164685,38.319168],[-8.288598,38.371536],[-8.370199,38.52677],[-8.63918,38.549213],[-8.527356,38.706316],[-8.54549,38.764295],[-8.373221,38.850328],[-8.222108,38.842847],[-8.228153,38.986859]]]}},{"type":"Feature","id":"PT1D1","properties":{"NUTS_ID":"PT1D1","Codigo_Sem_PT":"1D1","Nivel":3,"Regiao":"Oeste"},"geometry":{"type":"Polygon","coordinates":[[[-9.04114,39.740582],[-8.941406,39.671381],[-8.902117,39.46565],[-8.98674,39.345952],[-8.929317,39.018653],[-9.140875,38.949453],[-9.415901,39.054189],[-9.343366,39.349693],[-9.092519,39.577867],[-9.04114,39.740582]]]}},{"type":"Feature","id":"PT1D2","properties":{"NUTS_ID":"PT1D2","Codigo_Sem_PT":"1D2","Nivel":3,"Regiao":"Médio Tejo"},"geometry":{"type":"Polygon","coordinates":[[[-8.285576,39.79669],[-8.200952,39.633976],[-8.080062,39.622754],[-7.986372,39.73123],[-7.826192,39.536721],[-7.965216,39.536721],[-7.968238,39.403931],[-8.173752,39.233736],[-8.352065,39.448818],[-8.684514,39.415153],[-8.76007,39.475002],[-8.690558,39.553554],[-8.651269,39.764895],[-8.497134,39.819133],[-8.430644,39.746193],[-8.285576,39.79669]]]}},{"type":"Feature","id":"PT1D3","properties":{"NUTS_ID":"PT1D3","Codigo_Sem_PT":"1D3","Nivel":3,"Regiao":"Lezíria do Tejo"},"geometry":{"type":"Polygon","coordinates":[[[-8.968606,38.827885],[-8.887005,38.966285],[-8.929317,39.018653],[-8.98674,39.345952],[-8.902117,39.46565],[-8.76007,39.475002],[-8.684514,39.415153],[-8.352065,39.448818],[-8.173752,39.233736],[-8.321843,39.117778],[-8.228153,38.986859],[-8.222108,38.842847],[-8.373221,38.850328],[-8.54549,38.764295],[-8.672425,38.829755],[-8.775182,38.751203],[-8.926295,38.758684],[-8.968606,38.827885]]]}},{"type":"Feature","id":"PT200","properties":{"NUTS_ID":"PT200","Codigo_Sem_PT":"200","Nivel":3,"Regiao":"Região Autónoma dos Açores"},"geometry":{"type":"MultiPolygon","coordinates":[[[[-25.811659,37.902096],[-25.603123,37.825414],[-25.19814,37.86282],[-25.113517,37.79549],[-25.482232,37.701976],[-25.742147,37.750603],[-25.887215,37.86656],[-25.811659,37.902096]]],[[[-24.998671,36.944512],[-25.128628,36.93329],[-25.192095,36.974437],[-25.068183,37.017453],[-24.998671,36.944512]]],[[[-28.323156,38.403331],[-28.459158,38.386498],[-28.864141,38.618413],[-28.628405,38.650208],[-28.323156,38.403331]]],[[[-27.930263,38.601581],[-28.039064,38.581008],[-28.156932,38.653949],[-28.023953,38.689484],[-27.930263,38.601581]]],[[[-27.023585,38.687614],[-27.265366,38.638986],[-27.413456,38.751203],[-27.319766,38.809182],[-27.147497,38.805441],[-27.023585,38.687614]]],[[[-27.921196,39.042967],[-27.996752,38.999951],[-28.093465,39.042967],[-27.984663,39.093465],[-27.921196,39.042967]]],[[[-31.118746,39.445077],[-31.215459,39.355304],[-31.291015,39.454429],[-31.218481,39.52737],[-31.118746,39.445077]]],[[[-31.052257,39.703176],[-31.106657,39.632105],[-31.176169,39.706917],[-31.10968,39.761155],[-31.052257,39.703176]]]]}},{"type":"Feature","id":"PT300","properties":{"NUTS_ID":"PT300","Codigo_Sem_PT":"300","Nivel":3,"Regiao":"Região Autónoma da Madeira"},"geometry":{"type":"MultiPolygon","coordinates":[[[[-16.832526,32.646607],[-16.950394,32.635386],[-17.192174,32.7289],[-17.276798,32.816803],[-17.189152,32.861689],[-16.908082,32.828024],[-16.763014,32.73077],[-16.832526,32.646607]]],[[[-15.811002,30.101155],[-15.886558,30.101155],[-15.931892,30.142301],[-15.895625,30.190929],[-15.838202,30.19654],[-15.811002,30.101155]]],[[[-16.225051,33.097345],[-16.285497,33.041236],[-16.400342,33.086123],[-16.30363,33.13475],[-16.225051,33.097345]]]]}}]}